IRIDIUM 166             
1 43570U 18061B   25097.79993579 -.00000079  00000+0 -35225-4 0  9994
2 43570  86.3966 238.6257 0001849 102.2777 257.8626 14.34217222350990
IRIDIUM 158             
1 43571U 18061C   25098.11706507  .00000107  00000+0  31232-4 0  9999
2 43571  86.3968 238.5028 0001989  92.5033 267.6390 14.34218041351010
IRIDIUM 165             
1 43572U 18061D   25097.93313034  .00000054  00000+0  12220-4 0  9995
2 43572  86.3964 238.6173 0002153 101.9996 258.1441 14.34217786351002
IRIDIUM 154             
1 43574U 18061F   25097.80627616  .00000061  00000+0  14898-4 0  9998
2 43574  86.3965 238.6731 0002131  95.1255 265.0184 14.34215281351002
IRIDIUM 163             
1 43575U 18061G   25097.92678870 -.00000172  00000+0 -68364-4 0  9992
2 43575  86.3963 238.5522 0002051  91.0790 269.0641 14.34216525350999
IRIDIUM 164             
1 43577U 18061J   25097.81262200 -.00000156  00000+0 -62907-4 0  9997
2 43577  86.3967 238.6402 0002115 102.4670 257.6763 14.34216758351018
